{
  "type": "FeatureCollection",
  "features": [
    {
      "type": "Feature",
      "properties": {
        "norad_id": 66856,
        "name": "STARLINK-36072",
        "group": "last-30-days",
        "lat": -36.157785258061836,
        "lon": -38.256409622874465,
        "alt_km": 341.9885566717394,
        "timestamp": "2025-12-17T23:38:05.625931+00:00",
        "meta_object_name": "STARLINK-36072",
        "meta_object_id": "2025-281J",
        "meta_epoch": "2025-12-17T14:00:03.000384",
        "meta_mean_motion": 15.77920292,
        "meta_eccentricity": 0.00014027,
        "meta_inclination": 43.0006,
        "meta_ra_of_asc_node": 92.541,
        "meta_arg_of_pericenter": 283.9065,
        "meta_mean_anomaly": 193.8102,
        "meta_ephemeris_type": 0,
        "meta_classification_type": "U",
        "meta_norad_cat_id": 66856,
        "meta_element_set_no": 999,
        "meta_rev_at_epoch": 217,
        "meta_bstar": -0.0088467085,
        "meta_mean_motion_dot": -0.01374923,
        "meta_mean_motion_ddot": 0,
        "tle_line1": "1 66856U 25281J   25351.58336806 -.01374923  00000+0 -88467-2 0  9999",
        "tle_line2": "2 66856  43.0006  92.5410 0001402 283.9065 193.8102 15.77920292  2175"
      },
      "geometry": {
        "type": "Point",
        "coordinates": [
          -38.256409622874465,
          -36.157785258061836
        ]
      }
    },
    {
      "type": "Feature",
      "properties": {
        "norad_id": 66857,
        "name": "STARLINK-36083",
        "group": "last-30-days",
        "lat": -37.01471253454897,
        "lon": -35.90057507316076,
        "alt_km": 342.1525224611696,
        "timestamp": "2025-12-17T23:38:05.625941+00:00",
        "meta_object_name": "STARLINK-36083",
        "meta_object_id": "2025-281K",
        "meta_epoch": "2025-12-17T14:00:03.000384",
        "meta_mean_motion": 15.77856755,
        "meta_eccentricity": 0.00014599,
        "meta_inclination": 43.0005,
        "meta_ra_of_asc_node": 92.5355,
        "meta_arg_of_pericenter": 282.8732,
        "meta_mean_anomaly": 197.0228,
        "meta_ephemeris_type": 0,
        "meta_classification_type": "U",
        "meta_norad_cat_id": 66857,
        "meta_element_set_no": 999,
        "meta_rev_at_epoch": 217,
        "meta_bstar": -0.0089147122,
        "meta_mean_motion_dot": -0.01380814,
        "meta_mean_motion_ddot": 0,
        "tle_line1": "1 66857U 25281K   25351.58336806 -.01380814  00000+0 -89147-2 0  9992",
        "tle_line2": "2 66857  43.0005  92.5355 0001459 282.8732 197.0228 15.77856755  2171"
      },
      "geometry": {
        "type": "Point",
        "coordinates": [
          -35.90057507316076,
          -37.01471253454897
        ]
      }
    },
    {
      "type": "Feature",
      "properties": {
        "norad_id": 66858,
        "name": "STARLINK-35118",
        "group": "last-30-days",
        "lat": -37.830320563377455,
        "lon": -33.472353429598066,
        "alt_km": 342.5125728780895,
        "timestamp": "2025-12-17T23:38:05.625951+00:00",
        "meta_object_name": "STARLINK-35118",
        "meta_object_id": "2025-281L",
        "meta_epoch": "2025-12-17T14:00:03.000384",
        "meta_mean_motion": 15.77783044,
        "meta_eccentricity": 0.00014307,
        "meta_inclination": 43.0004,
        "meta_ra_of_asc_node": 92.5298,
        "meta_arg_of_pericenter": 289.3805,
        "meta_mean_anomaly": 192.7295,
        "meta_ephemeris_type": 0,
        "meta_classification_type": "U",
        "meta_norad_cat_id": 66858,
        "meta_element_set_no": 999,
        "meta_rev_at_epoch": 196,
        "meta_bstar": -0.0090008548,
        "meta_mean_motion_dot": -0.01388526,
        "meta_mean_motion_ddot": 0,
        "tle_line1": "1 66858U 25281L   25351.58336806 -.01388526  00000+0 -90009-2 0  9990",
        "tle_line2": "2 66858  43.0004  92.5298 0001430 289.3805 192.7295 15.77783044  1961"
      },
      "geometry": {
        "type": "Point",
        "coordinates": [
          -33.472353429598066,
          -37.830320563377455
        ]
      }
    },
    {
      "type": "Feature",
      "properties": {
        "norad_id": 66859,
        "name": "STARLINK-35646",
        "group": "last-30-days",
        "lat": -38.61148429151179,
        "lon": -30.93559789677807,
        "alt_km": 342.817342161602,
        "timestamp": "2025-12-17T23:38:05.625961+00:00",
        "meta_object_name": "STARLINK-35646",
        "meta_object_id": "2025-281M",
        "meta_epoch": "2025-12-17T14:00:03.000384",
        "meta_mean_motion": 15.77688114,
        "meta_eccentricity": 0.00014164,
        "meta_inclination": 43.0007,
        "meta_ra_of_asc_node": 92.5242,
        "meta_arg_of_pericenter": 288.3773,
        "meta_mean_anomaly": 196.0281,
        "meta_ephemeris_type": 0,
        "meta_classification_type": "U",
        "meta_norad_cat_id": 66859,
        "meta_element_set_no": 999,
        "meta_rev_at_epoch": 217,
        "meta_bstar": -0.0091551536,
        "meta_mean_motion_dot": -0.01404269,
        "meta_mean_motion_ddot": 0,
        "tle_line1": "1 66859U 25281M   25351.58336806 -.01404269  00000+0 -91552-2 0  9998",
        "tle_line2": "2 66859  43.0007  92.5242 0001416 288.3773 196.0281 15.77688114  2179"
      },
      "geometry": {
        "type": "Point",
        "coordinates": [
          -30.93559789677807,
          -38.61148429151179
        ]
      }
    },
    {
      "type": "Feature",
      "properties": {
        "norad_id": 66860,
        "name": "STARLINK-35987",
        "group": "last-30-days",
        "lat": -41.569397555345134,
        "lon": -17.81700193516458,
        "alt_km": 344.6545619746312,
        "timestamp": "2025-12-17T23:38:05.625971+00:00",
        "meta_object_name": "STARLINK-35987",
        "meta_object_id": "2025-281N",
        "meta_epoch": "2025-12-17T14:00:03.000384",
        "meta_mean_motion": 15.77045755,
        "meta_eccentricity": 0.00015726,
        "meta_inclination": 43.0006,
        "meta_ra_of_asc_node": 92.4957,
        "meta_arg_of_pericenter": 288.4808,
        "meta_mean_anomaly": 207.3697,
        "meta_ephemeris_type": 0,
        "meta_classification_type": "U",
        "meta_norad_cat_id": 66860,
        "meta_element_set_no": 999,
        "meta_rev_at_epoch": 217,
        "meta_bstar": -0.0097380243,
        "meta_mean_motion_dot": -0.01445654,
        "meta_mean_motion_ddot": 0,
        "tle_line1": "1 66860U 25281N   25351.58336806 -.01445654  00000+0 -97380-2 0  9998",
        "tle_line2": "2 66860  43.0006  92.4957 0001572 288.4808 207.3697 15.77045755  2170"
      },
      "geometry": {
        "type": "Point",
        "coordinates": [
          -17.81700193516458,
          -41.569397555345134
        ]
      }
    },
    {
      "type": "Feature",
      "properties": {
        "norad_id": 66861,
        "name": "STARLINK-35991",
        "group": "last-30-days",
        "lat": -39.99296988715473,
        "lon": -25.741182600871873,
        "alt_km": 343.4677944811792,
        "timestamp": "2025-12-17T23:38:05.625983+00:00",
        "meta_object_name": "STARLINK-35991",
        "meta_object_id": "2025-281P",
        "meta_epoch": "2025-12-17T14:00:03.000384",
        "meta_mean_motion": 15.77501406,
        "meta_eccentricity": 0.00014379,
        "meta_inclination": 43.0008,
        "meta_ra_of_asc_node": 92.5125,
        "meta_arg_of_pericenter": 280.2732,
        "meta_mean_anomaly": 208.7304,
        "meta_ephemeris_type": 0,
        "meta_classification_type": "U",
        "meta_norad_cat_id": 66861,
        "meta_element_set_no": 999,
        "meta_rev_at_epoch": 217,
        "meta_bstar": -0.0099331647,
        "meta_mean_motion_dot": -0.0149797,
        "meta_mean_motion_ddot": 0,
        "tle_line1": "1 66861U 25281P   25351.58336806 -.01497970  00000+0 -99332-2 0  9996",
        "tle_line2": "2 66861  43.0008  92.5125 0001437 280.2732 208.7304 15.77501406  2177"
      },
      "geometry": {
        "type": "Point",
        "coordinates": [
          -25.741182600871873,
          -39.99296988715473
        ]
      }
    },
    {
      "type": "Feature",
      "properties": {
        "norad_id": 66862,
        "name": "STARLINK-35974",
        "group": "last-30-days",
        "lat": -39.34197601523468,
        "lon": -28.32219415433879,
        "alt_km": 342.8420303774419,
        "timestamp": "2025-12-17T23:38:05.625993+00:00",
        "meta_object_name": "STARLINK-35974",
        "meta_object_id": "2025-281Q",
        "meta_epoch": "2025-12-17T14:00:03.000384",
        "meta_mean_motion": 15.77598759,
        "meta_eccentricity": 0.00018043,
        "meta_inclination": 43.0006,
        "meta_ra_of_asc_node": 92.5191,
        "meta_arg_of_pericenter": 276.2046,
        "meta_mean_anomaly": 210.5395,
        "meta_ephemeris_type": 0,
        "meta_classification_type": "U",
        "meta_norad_cat_id": 66862,
        "meta_element_set_no": 999,
        "meta_rev_at_epoch": 207,
        "meta_bstar": -0.0096650265,
        "meta_mean_motion_dot": -0.01468247,
        "meta_mean_motion_ddot": 0,
        "tle_line1": "1 66862U 25281Q   25351.58336806 -.01468247  00000+0 -96650-2 0  9992",
        "tle_line2": "2 66862  43.0006  92.5191 0001804 276.2046 210.5395 15.77598759  2077"
      },
      "geometry": {
        "type": "Point",
        "coordinates": [
          -28.32219415433879,
          -39.34197601523468
        ]
      }
    }
  ]
}